[{"OBJECT_NAME":"ONEWEB-0382","OBJECT_ID":"2021-090AF","EPOCH":"2026-03-25T03:09:13.957920","MEAN_MOTION":13.20771132,"ECCENTRICITY":0.00014363,"INCLINATION":87.915,"RA_OF_ASC_NODE":291.2193,"ARG_OF_PERICENTER":95.1383,"MEAN_ANOMALY":264.9915,"EPHEMERIS_TYPE":0,"CLASSIFICATION_TYPE":"U","NORAD_CAT_ID":49308,"ELEMENT_SET_NO":999,"REV_AT_EPOCH":21872,"BSTAR":0.00017960239,"MEAN_MOTION_DOT":8.6e-7,"MEAN_MOTION_DDOT":0},{"OBJECT_NAME":"ONEWEB-0383","OBJECT_ID":"2021-090AG","EPOCH":"2026-03-25T09:04:24.502368","MEAN_MOTION":13.14503115,"ECCENTRICITY":0.00015885,"INCLINATION":87.8959,"RA_OF_ASC_NODE":306.4212,"ARG_OF_PERICENTER":90.572,"MEAN_ANOMALY":269.5592,"EPHEMERIS_TYPE":0,"CLASSIFICATION_TYPE":"U","NORAD_CAT_ID":49309,"ELEMENT_SET_NO":999,"REV_AT_EPOCH":21658,"BSTAR":0.00037146131,"MEAN_MOTION_DOT":1.51e-6,"MEAN_MOTION_DDOT":0},{"OBJECT_NAME":"ONEWEB-0384","OBJECT_ID":"2021-090AH","EPOCH":"2026-03-25T12:01:34.498272","MEAN_MOTION":13.2080832,"ECCENTRICITY":0.00013848,"INCLINATION":87.9151,"RA_OF_ASC_NODE":291.1884,"ARG_OF_PERICENTER":104.1569,"MEAN_ANOMALY":255.9718,"EPHEMERIS_TYPE":0,"CLASSIFICATION_TYPE":"U","NORAD_CAT_ID":49310,"ELEMENT_SET_NO":999,"REV_AT_EPOCH":21878,"BSTAR":8.6620696e-5,"MEAN_MOTION_DOT":4.8e-7,"MEAN_MOTION_DDOT":0},{"OBJECT_NAME":"ONEWEB-0385","OBJECT_ID":"2021-090AJ","EPOCH":"2026-03-25T06:36:03.384288","MEAN_MOTION":13.20772234,"ECCENTRICITY":0.00015179,"INCLINATION":87.9148,"RA_OF_ASC_NODE":291.1951,"ARG_OF_PERICENTER":91.5138,"MEAN_ANOMALY":268.6169,"EPHEMERIS_TYPE":0,"CLASSIFICATION_TYPE":"U","NORAD_CAT_ID":49311,"ELEMENT_SET_NO":999,"REV_AT_EPOCH":21872,"BSTAR":3.0538503e-5,"MEAN_MOTION_DOT":2.5e-7,"MEAN_MOTION_DDOT":0},{"OBJECT_NAME":"ONEWEB-0386","OBJECT_ID":"2021-090AK","EPOCH":"2026-03-25T12:28:19.311744","MEAN_MOTION":13.20771816,"ECCENTRICITY":0.00015413,"INCLINATION":87.9156,"RA_OF_ASC_NODE":291.1314,"ARG_OF_PERICENTER":95.7437,"MEAN_ANOMALY":264.3873,"EPHEMERIS_TYPE":0,"CLASSIFICATION_TYPE":"U","NORAD_CAT_ID":49312,"ELEMENT_SET_NO":999,"REV_AT_EPOCH":21877,"BSTAR":0.00012756079,"MEAN_MOTION_DOT":6.5e-7,"MEAN_MOTION_DDOT":0},{"OBJECT_NAME":"ONEWEB-0387","OBJECT_ID":"2021-090AL","EPOCH":"2026-03-25T06:38:19.292352","MEAN_MOTION":13.20771077,"ECCENTRICITY":0.00014906,"INCLINATION":87.9138,"RA_OF_ASC_NODE":291.2156,"ARG_OF_PERICENTER":82.2835,"MEAN_ANOMALY":277.8467,"EPHEMERIS_TYPE":0,"CLASSIFICATION_TYPE":"U","NORAD_CAT_ID":49313,"ELEMENT_SET_NO":999,"REV_AT_EPOCH":21874,"BSTAR":0.00012939664,"MEAN_MOTION_DOT":6.6e-7,"MEAN_MOTION_DDOT":0},{"OBJECT_NAME":"ONEWEB-0388","OBJECT_ID":"2021-090AM","EPOCH":"2026-03-25T15:07:36.050304","MEAN_MOTION":13.19725297,"ECCENTRICITY":0.00016197,"INCLINATION":87.9203,"RA_OF_ASC_NODE":321.6271,"ARG_OF_PERICENTER":85.1052,"MEAN_ANOMALY":275.0265,"EPHEMERIS_TYPE":0,"CLASSIFICATION_TYPE":"U","NORAD_CAT_ID":49314,"ELEMENT_SET_NO":999,"REV_AT_EPOCH":21539,"BSTAR":-6.678314e-5,"MEAN_MOTION_DOT":-1.4e-7,"MEAN_MOTION_DDOT":0},{"OBJECT_NAME":"ONEWEB-0389","OBJECT_ID":"2021-132A","EPOCH":"2026-03-25T08:45:51.780096","MEAN_MOTION":13.17651296,"ECCENTRICITY":0.0001496,"INCLINATION":87.9175,"RA_OF_ASC_NODE":22.5138,"ARG_OF_PERICENTER":74.4857,"MEAN_ANOMALY":285.6439,"EPHEMERIS_TYPE":0,"CLASSIFICATION_TYPE":"U","NORAD_CAT_ID":50469,"ELEMENT_SET_NO":999,"REV_AT_EPOCH":20704,"BSTAR":0.00012607795,"MEAN_MOTION_DOT":6.2e-7,"MEAN_MOTION_DDOT":0},{"OBJECT_NAME":"ONEWEB-0390","OBJECT_ID":"2021-132B","EPOCH":"2026-03-25T12:26:59.985312","MEAN_MOTION":13.17649339,"ECCENTRICITY":0.0001991,"INCLINATION":87.9172,"RA_OF_ASC_NODE":22.4837,"ARG_OF_PERICENTER":72.7077,"MEAN_ANOMALY":287.4272,"EPHEMERIS_TYPE":0,"CLASSIFICATION_TYPE":"U","NORAD_CAT_ID":50470,"ELEMENT_SET_NO":999,"REV_AT_EPOCH":20706,"BSTAR":0.00031198082,"MEAN_MOTION_DOT":1.34e-6,"MEAN_MOTION_DDOT":0},{"OBJECT_NAME":"ONEWEB-0391","OBJECT_ID":"2021-132C","EPOCH":"2026-03-25T12:29:25.127808","MEAN_MOTION":13.17651174,"ECCENTRICITY":0.00014041,"INCLINATION":87.9176,"RA_OF_ASC_NODE":22.4925,"ARG_OF_PERICENTER":52.9716,"MEAN_ANOMALY":307.1544,"EPHEMERIS_TYPE":0,"CLASSIFICATION_TYPE":"U","NORAD_CAT_ID":50471,"ELEMENT_SET_NO":999,"REV_AT_EPOCH":20706,"BSTAR":0.00010828788,"MEAN_MOTION_DOT":5.5e-7,"MEAN_MOTION_DDOT":0},{"OBJECT_NAME":"ONEWEB-0392","OBJECT_ID":"2021-132D","EPOCH":"2026-03-25T13:13:09.940800","MEAN_MOTION":13.17650374,"ECCENTRICITY":0.00015343,"INCLINATION":87.9185,"RA_OF_ASC_NODE":22.4482,"ARG_OF_PERICENTER":71.8682,"MEAN_ANOMALY":288.2617,"EPHEMERIS_TYPE":0,"CLASSIFICATION_TYPE":"U","NORAD_CAT_ID":50472,"ELEMENT_SET_NO":999,"REV_AT_EPOCH":20710,"BSTAR":0.00011560661,"MEAN_MOTION_DOT":5.8e-7,"MEAN_MOTION_DDOT":0},{"OBJECT_NAME":"ONEWEB-0393","OBJECT_ID":"2021-132E","EPOCH":"2026-03-25T12:37:16.470048","MEAN_MOTION":13.17136421,"ECCENTRICITY":0.0001311,"INCLINATION":87.9173,"RA_OF_ASC_NODE":22.4761,"ARG_OF_PERICENTER":77.405,"MEAN_ANOMALY":282.7228,"EPHEMERIS_TYPE":0,"CLASSIFICATION_TYPE":"U","NORAD_CAT_ID":50473,"ELEMENT_SET_NO":999,"REV_AT_EPOCH":20709,"BSTAR":0.0077371349,"MEAN_MOTION_DOT":2.995e-5,"MEAN_MOTION_DDOT":0},{"OBJECT_NAME":"ONEWEB-0394","OBJECT_ID":"2021-132F","EPOCH":"2026-03-25T11:34:00.043680","MEAN_MOTION":13.18687385,"ECCENTRICITY":0.00016127,"INCLINATION":87.9247,"RA_OF_ASC_NODE":352.0727,"ARG_OF_PERICENTER":79.0458,"MEAN_ANOMALY":281.0856,"EPHEMERIS_TYPE":0,"CLASSIFICATION_TYPE":"U","NORAD_CAT_ID":50474,"ELEMENT_SET_NO":999,"REV_AT_EPOCH":21056,"BSTAR":-3.2947125e-5,"MEAN_MOTION_DOT":0,"MEAN_MOTION_DDOT":0},{"OBJECT_NAME":"ONEWEB-0395","OBJECT_ID":"2021-132G","EPOCH":"2026-03-25T09:26:13.389792","MEAN_MOTION":13.11416964,"ECCENTRICITY":0.00018263,"INCLINATION":87.8885,"RA_OF_ASC_NODE":37.7279,"ARG_OF_PERICENTER":73.8495,"MEAN_ANOMALY":286.2834,"EPHEMERIS_TYPE":0,"CLASSIFICATION_TYPE":"U","NORAD_CAT_ID":50475,"ELEMENT_SET_NO":999,"REV_AT_EPOCH":20473,"BSTAR":0.0015776105,"MEAN_MOTION_DOT":5.72e-6,"MEAN_MOTION_DDOT":0},{"OBJECT_NAME":"ONEWEB-0396","OBJECT_ID":"2021-132H","EPOCH":"2026-03-25T11:24:29.981664","MEAN_MOTION":13.18687834,"ECCENTRICITY":0.00016731,"INCLINATION":87.9248,"RA_OF_ASC_NODE":352.086,"ARG_OF_PERICENTER":78.5145,"MEAN_ANOMALY":281.6175,"EPHEMERIS_TYPE":0,"CLASSIFICATION_TYPE":"U","NORAD_CAT_ID":50476,"ELEMENT_SET_NO":999,"REV_AT_EPOCH":21060,"BSTAR":0.00024757626,"MEAN_MOTION_DOT":1.11e-6,"MEAN_MOTION_DDOT":0},{"OBJECT_NAME":"ONEWEB-0397","OBJECT_ID":"2021-132J","EPOCH":"2026-03-25T02:39:34.084224","MEAN_MOTION":13.18687376,"ECCENTRICITY":0.00015947,"INCLINATION":87.9247,"RA_OF_ASC_NODE":352.1584,"ARG_OF_PERICENTER":83.6667,"MEAN_ANOMALY":276.4647,"EPHEMERIS_TYPE":0,"CLASSIFICATION_TYPE":"U","NORAD_CAT_ID":50477,"ELEMENT_SET_NO":999,"REV_AT_EPOCH":21053,"BSTAR":-9.0254446e-5,"MEAN_MOTION_DOT":-2.3e-7,"MEAN_MOTION_DDOT":0},{"OBJECT_NAME":"ONEWEB-0398","OBJECT_ID":"2021-132K","EPOCH":"2026-03-25T14:09:24.062976","MEAN_MOTION":13.11418123,"ECCENTRICITY":0.00021074,"INCLINATION":87.8897,"RA_OF_ASC_NODE":37.6703,"ARG_OF_PERICENTER":71.228,"MEAN_ANOMALY":288.9076,"EPHEMERIS_TYPE":0,"CLASSIFICATION_TYPE":"U","NORAD_CAT_ID":50478,"ELEMENT_SET_NO":999,"REV_AT_EPOCH":20465,"BSTAR":-0.0012443203,"MEAN_MOTION_DOT":-4.28e-6,"MEAN_MOTION_DDOT":0}]
