ONEWEB-0382             
1 49308U 21090AF  26084.13141155  .00000086  00000+0  17960-3 0  9996
2 49308  87.9150 291.2193 0001436  95.1383 264.9915 13.20771132218729
ONEWEB-0383             
1 49309U 21090AG  26084.37806137  .00000151  00000+0  37146-3 0  9992
2 49309  87.8959 306.4212 0001588  90.5720 269.5592 13.14503115216580
ONEWEB-0384             
1 49310U 21090AH  26084.50109373  .00000048  00000+0  86621-4 0  9995
2 49310  87.9151 291.1884 0001384 104.1569 255.9718 13.20808320218785
ONEWEB-0385             
1 49311U 21090AJ  26084.27503917  .00000025  00000+0  30539-4 0  9994
2 49311  87.9148 291.1951 0001517  91.5138 268.6169 13.20772234218725
ONEWEB-0386             
1 49312U 21090AK  26084.51966796  .00000065  00000+0  12756-3 0  9994
2 49312  87.9156 291.1314 0001541  95.7437 264.3873 13.20771816218778
ONEWEB-0387             
1 49313U 21090AL  26084.27661218  .00000066  00000+0  12940-3 0  9995
2 49313  87.9138 291.2156 0001490  82.2835 277.8467 13.20771077218744
ONEWEB-0388             
1 49314U 21090AM  26084.63027836 -.00000014  00000+0 -66783-4 0  9998
2 49314  87.9203 321.6271 0001619  85.1052 275.0265 13.19725297215395
ONEWEB-0389             
1 50469U 21132A   26084.36518264  .00000062  00000+0  12608-3 0  9995
2 50469  87.9175  22.5138 0001496  74.4857 285.6439 13.17651296207040
ONEWEB-0390             
1 50470U 21132B   26084.51874983  .00000134  00000+0  31198-3 0  9992
2 50470  87.9172  22.4837 0001991  72.7077 287.4272 13.17649339207061
ONEWEB-0391             
1 50471U 21132C   26084.52042972  .00000055  00000+0  10829-3 0  9999
2 50471  87.9176  22.4925 0001404  52.9716 307.1544 13.17651174207065
ONEWEB-0392             
1 50472U 21132D   26084.55080950  .00000058  00000+0  11561-3 0  9998
2 50472  87.9185  22.4482 0001534  71.8682 288.2617 13.17650374207106
ONEWEB-0393             
1 50473U 21132E   26084.52588507  .00002995  00000+0  77371-2 0  9999
2 50473  87.9173  22.4761 0001311  77.4050 282.7228 13.17136421207095
ONEWEB-0394             
1 50474U 21132F   26084.48194495  .00000000  00000+0 -32947-4 0  9992
2 50474  87.9247 352.0727 0001612  79.0458 281.0856 13.18687385210562
ONEWEB-0395             
1 50475U 21132G   26084.39321053  .00000572  00000+0  15776-2 0  9997
2 50475  87.8885  37.7279 0001826  73.8495 286.2834 13.11416964204730
ONEWEB-0396             
1 50476U 21132H   26084.47534701  .00000111  00000+0  24758-3 0  9993
2 50476  87.9248 352.0860 0001673  78.5145 281.6175 13.18687834210601
ONEWEB-0397             
1 50477U 21132J   26084.11081116 -.00000023  00000+0 -90254-4 0  9991
2 50477  87.9247 352.1584 0001594  83.6667 276.4647 13.18687376210532
ONEWEB-0398             
1 50478U 21132K   26084.58986184 -.00000428  00000+0 -12443-2 0  9993
2 50478  87.8897  37.6703 0002107  71.2280 288.9076 13.11418123204651
